DELTA 2 R/B(1)          
1 20453U 90008B   26116.58992363  .00076430  00000+0  72886-3 0  9995
2 20453  35.6013 218.9831 0073876 348.1433  11.7565 15.62057127933616
COSMOS 2058             
1 20465U 90010A   26116.77526663  .00003448  00000+0  20068-3 0  9992
2 20465  82.4694   0.0509 0009890 157.2365 202.9306 15.11705079949506
SL-14 R/B               
1 20466U 90010B   26116.77566997  .00000474  00000+0  54330-4 0  9993
2 20466  82.5042 222.2189 0020852 138.3884 221.8923 14.83613152935614
SL-14 R/B               
1 20511U 90018B   26116.63703721  .00000345  00000+0  40360-4 0  9990
2 20511  82.5229 178.2894 0014817 296.2888  63.6803 14.82185252929680
HST                     
1 20580U 90037B   26116.88970413  .00007160  00000+0  23061-3 0  9998
2 20580  28.4745  71.0090 0001654 297.6066  62.4362 15.30163407780701
SL-16 R/B               
1 20625U 90046B   26116.62616733  .00000130  00000+0  91849-4 0  9992
2 20625  70.9990 197.2357 0016027 235.9506 124.0095 14.15015546855170
COSMOS 2084             
1 20663U 90055A   26116.46957759  .00002002  00000+0  15076-3 0  9999
2 20663  62.7883 172.5807 0009627 210.6915 149.3624 15.05906712943518
SL-6 R/B(2)             
1 20666U 90055D   26116.91738747  .00002620  00000+0  20214-3 0  9992
2 20666  62.7820  89.8142 0032602 357.1125   2.9780 15.03802766945446
SL-8 R/B                
1 20775U 90078B   26116.73416118  .00024914  00000+0  72860-3 0  9997
2 20775  82.9055 208.0600 0356113 211.6838 146.2512 14.90420151816458
SL-8 R/B                
1 21088U 91006B   26116.57584669  .00000199  00000+0  18444-3 0  9993
2 21088  82.9398 134.4335 0020950 260.4031 217.6905 13.77504699770662
OKEAN-3                 
1 21397U 91039A   26116.88388199  .00003722  00000+0  25950-3 0  9991
2 21397  82.5132 290.1277 0014414 160.6039 199.5740 15.05060200872283
COSMOS 2151             
1 21422U 91042A   26116.90677979  .00001707  00000+0  13402-3 0  9994
2 21422  82.4989  37.1583 0010635 255.3766 104.6279 15.00297282870425
SL-14 R/B               
1 21423U 91042B   26116.63280396  .00000354  00000+0  41717-4 0  9996
2 21423  82.4944 175.2401 0018582  84.4963 275.8370 14.81870862860172
ERS-1                   
1 21574U 91050A   26116.93730073  .00000297  00000+0  10935-3 0  9990
2 21574  98.7834 136.3767 0032955  60.4189 300.0275 14.39483872822676
ARIANE 40 R/B           
1 21610U 91050F   26116.73488634  .00000285  00000+0  97769-4 0  9990
2 21610  98.1920 167.1452 0001811 297.8119  62.2888 14.42925767825922
INTERCOSMOS 25          
1 21819U 91086A   26116.94298380  .00000657  00000+0  12537-3 0  9992
2 21819  82.5993 280.8220 1485692  12.9353 350.5817 12.12130963502531
SL-8 R/B                
1 21876U 92008B   26116.87235301  .00000054  00000+0  39766-4 0  9991
2 21876  82.9279 231.9355 0034515   2.3930 117.5637 13.75970817716042
SL-8 R/B                
1 21938U 92020B   26116.79564639 -.00000052  00000+0 -69843-4 0  9993
2 21938  82.9268 118.0321 0029468 160.8049  13.2135 13.75548260707744
USA 81                  
1 21949U 92023A   26116.86037047  .00000183  00000+0  60423-4 0  9992
2 21949  85.0036 103.6324 0001359 104.5788 255.5556 14.32382749101681
COSMOS 2219             
1 22219U 92076A   26116.83512182  .00000379  00000+0  22339-3 0  9996
2 22219  71.0597 277.4205 0016767 130.7408 229.5174 14.14096734725186
SL-16 R/B               
1 22220U 92076B   26116.65545431 -.00000157  00000+0 -54273-4 0  9990
2 22220  70.9982  87.3334 0012118  11.6465 160.6276 14.16865252728622
COSMOS 2221             
1 22236U 92080A   26116.78604045  .00001962  00000+0  17059-3 0  9996
2 22236  82.5046 232.9994 0014921  36.3636 323.8596 14.96393877787986
SL-16 R/B               
1 22285U 92093B   26116.79504404  .00000340  00000+0  19832-3 0  9993
2 22285  71.0212 263.2764 0006126 245.0407 115.0080 14.15458354719968
COSMOS 2228             
1 22286U 92094A   26116.90365175  .00001784  00000+0  15062-3 0  9992
2 22286  82.5201 191.1538 0019089 136.6295 223.6434 14.97414429783273
SL-16 R/B               
1 22566U 93016B   26116.69895149 -.00000261  00000+0 -10942-3 0  9996
2 22566  71.0036 114.3496 0012527 253.5637 106.4110 14.15309290708963
COSMOS 2242             
1 22626U 93024A   26116.77332480  .00002086  00000+0  17973-3 0  9991
2 22626  82.5205 220.7186 0017335 140.1715 220.0784 14.96749068787588
SL-16 R/B               
1 22803U 93059B   26116.82491719  .00000206  00000+0  12555-3 0  9996
2 22803  70.9894 269.6161 0015803 142.9498 217.2720 14.17239172686355
ARIANE 40 R/B           
1 22830U 93061H   26116.81141273  .00000178  00000+0  81012-4 0  9998
2 22830  98.4843 184.7297 0011643 137.6708 222.5376 14.32884877700992
COSMOS 2278             
1 23087U 94023A   26116.90192462  .00000158  00000+0  10697-3 0  9996
2 23087  71.0537  74.2252 0010553 306.3016  53.7131 14.14387897651622
SL-16 R/B               
1 23088U 94023B   26116.92665171  .00000024  00000+0  37166-4 0  9994
2 23088  70.9999 329.5865 0005092 240.7780 119.2834 14.15015310652910
SL-16 R/B               
1 23343U 94074B   26116.94983998  .00000420  00000+0  62882-4 0  9999
2 23343  97.7035 145.7966 0007979  69.4794 354.2794 14.79457339694383
SL-16 R/B               
1 23405U 94077B   26116.81878692  .00000019  00000+0  34183-4 0  9998
2 23405  70.9831 251.2302 0000332 102.0816 258.0344 14.15572639623049
ARIANE 40+ R/B          
1 23561U 95021B   26116.77777128  .00000278  00000+0  10233-3 0  9994
2 23561  98.4429 187.5905 0006656   9.0594 101.5666 14.39804185626169
SL-16 R/B               
1 23705U 95058B   26116.89877156 -.00000194  00000+0 -74633-4 0  9993
2 23705  71.0207  79.0387 0010989  36.9697 323.2181 14.15504720574675
SL-16 R/B               
1 24298U 96051B   26116.89926432  .00000091  00000+0  75666-4 0  9998
2 24298  70.7605  73.1961 0012501  64.3327 295.9082 14.12428132528450
ORBVIEW 2 (SEASTAR)     
1 24883U 97037A   26116.92994923  .00000249  00000+0  10272-3 0  9993
2 24883  98.8644 282.5401 0001076 282.3244  77.7820 14.35525854515393
SL-16 R/B               
1 25400U 98043G   26116.86348016  .00000055  00000+0  42083-4 0  9997
2 25400  98.8327  70.5927 0008940 231.2190 128.8192 14.26060068445859
SL-16 R/B               
1 25407U 98045B   26116.88602625 -.00000174  00000+0 -63537-4 0  9998
2 25407  71.0099  80.2159 0009299 302.0514  57.9705 14.16196577433926
ISS (ZARYA)             
1 25544U 98067A   26116.65160327  .00008927  00000+0  17009-3 0  9991
2 25544  51.6320 195.1803 0007009 353.7259   6.3640 15.48972814563761
CZ-4B R/B               
1 25732U 99025C   26116.87185198  .00000032  00000+0  36158-4 0  9998
2 25732  98.6533 159.9900 0036680 204.6816 328.7120 14.18274219394994
OKEAN-O                 
1 25860U 99039A   26116.70965524  .00000691  00000+0  97253-4 0  9990
2 25860  97.9355 176.0899 0001538 114.0779 246.0594 14.80404478441499
SL-16 R/B               
1 25861U 99039B   26116.71202548  .00000574  00000+0  79431-4 0  9990
2 25861  97.9879 175.7132 0016170 101.0669 259.2363 14.81791711443974
DELTA 2 R/B             
1 25876U 99041E   26116.93126006  .00000655  00000+0  14480-3 0  9999
2 25876  51.7599 108.5551 0502447 130.6875 233.8854 14.11931083369847
HELIOS 1B               
1 25977U 99064A   26116.73373451  .00001608  00000+0  18224-3 0  9991
2 25977  98.1651  20.3804 0000372  88.4042 271.7216 14.87864898692407
TERRA                   
1 25994U 99068A   26116.92557756  .00000377  00000+0  85707-4 0  9990
2 25994  97.9501 168.4937 0003159  54.6802 348.9138 14.61060958402128
SL-16 R/B               
1 26070U 00006B   26116.84334624  .00000296  00000+0  17445-3 0  9991
2 26070  71.0043 356.5865 0014589 111.1873 249.0811 14.15831208355370
TITAN 4B R/B            
1 26474U 00047B   26116.85948023  .00003119  00000+0  19625-3 0  9998
2 26474  67.9884 265.0151 0042626 340.6276  19.3251 15.09919267400188
ENVISAT                 
1 27386U 02009A   26116.85930461  .00000103  00000+0  47238-4 0  9990
2 27386  98.3799  69.3338 0001142  86.9559 297.5378 14.39052146266106
IDEFIX & ARIANE 42P R/B 
1 27422U 02021B   26116.80997273  .00000230  00000+0  10396-3 0  9999
2 27422  98.5920  54.8579 0012784  49.4322 310.7972 14.31056054250900
AQUA                    
1 27424U 02022A   26116.92747733  .00000833  00000+0  17570-3 0  9999
2 27424  98.4244  85.2005 0002045  94.9051 293.7936 14.62075483275789
CZ-4B R/B               
1 27432U 02024C   26116.75628745  .00000045  00000+0  46463-4 0  9991
2 27432  98.8744 169.8983 0049176 245.9199 223.2913 14.14555920236032
MIDORI II (ADEOS-II)    
1 27597U 02056A   26116.89635413  .00000277  00000+0  12659-3 0  9999
2 27597  98.7842  75.7326 0000866 143.2706 216.8535 14.29319148217184
H-2A R/B                
1 27601U 02056E   26116.92458777  .00000329  00000+0  12956-3 0  9993
2 27601  98.3276  75.4791 0070685  18.9248  16.7350 14.33793957221024
CZ-4B R/B               
1 28059U 03049C   26116.93293444  .00000408  00000+0  10479-3 0  9999
2 28059  98.6899 113.7433 0049338  84.6417 276.0405 14.55060912193611
CZ-2C R/B               
1 28222U 04012C   26116.74265296  .00088927  00000+0  71707-3 0  9998
2 28222  97.7136 186.7879 0013551 133.2081 227.0315 15.70496173211805
SL-16 R/B               
1 28353U 04021B   26116.75361328 -.00000198  00000+0 -78110-4 0  9999
2 28353  70.9983 131.6297 0006881 308.4606  51.5899 14.14604119129637
CZ-4B R/B               
1 28415U 04035C   26116.66880907  .00009121  00000+0  31333-3 0  9990
2 28415  97.3423 150.3423 0032413 155.4809 204.7982 15.29830499187247
CZ-2C R/B               
1 28480U 04046B   26116.72627010  .00000175  00000+0  80305-4 0  9999
2 28480  98.1969  28.7157 0139768  13.3432 347.1386 14.27010782115355
ARIANE 5 R/B            
1 28499U 04049H   26116.93460750  .00001052  00000+0  12201-3 0  9995
2 28499  98.2690 287.2198 0083746 193.8767 166.0145 14.85356362152952
